{
  "type": "FeatureCollection",
  "features": [
    {
      "type": "Feature",
      "properties": {
        "norad_id": 34478,
        "name": "COSMOS 2251 DEB",
        "group": "cosmos-2251-debris",
        "lat": -73.76248463590056,
        "lon": -59.81037725906914,
        "alt_km": 530.0016632096413,
        "timestamp": "2025-12-06T14:35:37.520569+00:00",
        "meta_object_name": "COSMOS 2251 DEB",
        "meta_object_id": "1993-036TX",
        "meta_epoch": "2025-12-06T02:22:13.698624",
        "meta_mean_motion": 15.07194673,
        "meta_eccentricity": 0.00361857,
        "meta_inclination": 74.0405,
        "meta_ra_of_asc_node": 20.5405,
        "meta_arg_of_pericenter": 243.3576,
        "meta_mean_anomaly": 147.1087,
        "meta_ephemeris_type": 0,
        "meta_classification_type": "U",
        "meta_norad_cat_id": 34478,
        "meta_element_set_no": 999,
        "meta_rev_at_epoch": 88873,
        "meta_bstar": 0.0041360892,
        "meta_mean_motion_dot": 0.00063727,
        "meta_mean_motion_ddot": 0,
        "tle_line1": "1 34478U 93036TX  25340.09876966  .00063727  00000+0  41361-2 0  9993",
        "tle_line2": "2 34478  74.0405  20.5405 0036185 243.3576 147.1087 15.07194673888732"
      },
      "geometry": {
        "type": "Point",
        "coordinates": [
          -59.81037725906914,
          -73.76248463590056
        ]
      }
    },
    {
      "type": "Feature",
      "properties": {
        "norad_id": 34481,
        "name": "COSMOS 2251 DEB",
        "group": "cosmos-2251-debris",
        "lat": 72.69492532275966,
        "lon": 131.92709491629012,
        "alt_km": 822.6046237911178,
        "timestamp": "2025-12-06T14:35:37.520579+00:00",
        "meta_object_name": "COSMOS 2251 DEB",
        "meta_object_id": "1993-036UA",
        "meta_epoch": "2025-12-06T05:57:59.040864",
        "meta_mean_motion": 14.32511398,
        "meta_eccentricity": 0.00709062,
        "meta_inclination": 73.9807,
        "meta_ra_of_asc_node": 65.3487,
        "meta_arg_of_pericenter": 240.8841,
        "meta_mean_anomaly": 149.7617,
        "meta_ephemeris_type": 0,
        "meta_classification_type": "U",
        "meta_norad_cat_id": 34481,
        "meta_element_set_no": 999,
        "meta_rev_at_epoch": 87356,
        "meta_bstar": 0.0014027077,
        "meta_mean_motion_dot": 3.885e-05,
        "meta_mean_motion_ddot": 0,
        "tle_line1": "1 34481U 93036UA  25340.24860001  .00003885  00000+0  14027-2 0  9995",
        "tle_line2": "2 34481  73.9807  65.3487 0070906 240.8841 149.7617 14.32511398873569"
      },
      "geometry": {
        "type": "Point",
        "coordinates": [
          131.92709491629012,
          72.69492532275966
        ]
      }
    },
    {
      "type": "Feature",
      "properties": {
        "norad_id": 34482,
        "name": "COSMOS 2251 DEB",
        "group": "cosmos-2251-debris",
        "lat": 11.66990426670967,
        "lon": 52.07292235220375,
        "alt_km": 685.3401249825765,
        "timestamp": "2025-12-06T14:35:37.520589+00:00",
        "meta_object_name": "COSMOS 2251 DEB",
        "meta_object_id": "1993-036UB",
        "meta_epoch": "2025-12-06T04:44:26.566944",
        "meta_mean_motion": 14.6896238,
        "meta_eccentricity": 0.00455262,
        "meta_inclination": 74.0371,
        "meta_ra_of_asc_node": 236.2565,
        "meta_arg_of_pericenter": 297.4369,
        "meta_mean_anomaly": 220.5389,
        "meta_ephemeris_type": 0,
        "meta_classification_type": "U",
        "meta_norad_cat_id": 34482,
        "meta_element_set_no": 999,
        "meta_rev_at_epoch": 88091,
        "meta_bstar": 0.003298856,
        "meta_mean_motion_dot": 0.00019656,
        "meta_mean_motion_ddot": 0,
        "tle_line1": "1 34482U 93036UB  25340.19752971  .00019656  00000+0  32989-2 0  9996",
        "tle_line2": "2 34482  74.0371 236.2565 0045526 297.4369 220.5389 14.68962380880918"
      },
      "geometry": {
        "type": "Point",
        "coordinates": [
          52.07292235220375,
          11.66990426670967
        ]
      }
    },
    {
      "type": "Feature",
      "properties": {
        "norad_id": 34544,
        "name": "COSMOS 2251 DEB",
        "group": "cosmos-2251-debris",
        "lat": 54.13449692428726,
        "lon": -122.52228816443396,
        "alt_km": 1333.879920109297,
        "timestamp": "2025-12-06T14:35:37.520599+00:00",
        "meta_object_name": "COSMOS 2251 DEB",
        "meta_object_id": "1993-036UE",
        "meta_epoch": "2025-12-05T17:20:31.794144",
        "meta_mean_motion": 13.54657034,
        "meta_eccentricity": 0.03845472,
        "meta_inclination": 73.9151,
        "meta_ra_of_asc_node": 215.3898,
        "meta_arg_of_pericenter": 245.121,
        "meta_mean_anomaly": 175.271,
        "meta_ephemeris_type": 0,
        "meta_classification_type": "U",
        "meta_norad_cat_id": 34544,
        "meta_element_set_no": 999,
        "meta_rev_at_epoch": 82787,
        "meta_bstar": 0.00038902379,
        "meta_mean_motion_dot": 4.03e-06,
        "meta_mean_motion_ddot": 0,
        "tle_line1": "1 34544U 93036UE  25339.72259021  .00000403  00000+0  38902-3 0  9992",
        "tle_line2": "2 34544  73.9151 215.3898 0384547 245.1210 175.2710 13.54657034827873"
      },
      "geometry": {
        "type": "Point",
        "coordinates": [
          -122.52228816443396,
          54.13449692428726
        ]
      }
    },
    {
      "type": "Feature",
      "properties": {
        "norad_id": 34546,
        "name": "COSMOS 2251 DEB",
        "group": "cosmos-2251-debris",
        "lat": 13.850565639571617,
        "lon": 76.5698614538623,
        "alt_km": 756.7095970704013,
        "timestamp": "2025-12-06T14:35:37.520610+00:00",
        "meta_object_name": "COSMOS 2251 DEB",
        "meta_object_id": "1993-036UG",
        "meta_epoch": "2025-12-05T23:27:17.101728",
        "meta_mean_motion": 14.45362007,
        "meta_eccentricity": 0.00217678,
        "meta_inclination": 74.0318,
        "meta_ra_of_asc_node": 261.7937,
        "meta_arg_of_pericenter": 336.2828,
        "meta_mean_anomaly": 148.3578,
        "meta_ephemeris_type": 0,
        "meta_classification_type": "U",
        "meta_norad_cat_id": 34546,
        "meta_element_set_no": 999,
        "meta_rev_at_epoch": 87928,
        "meta_bstar": 0.0012688363,
        "meta_mean_motion_dot": 4.45e-05,
        "meta_mean_motion_ddot": 0,
        "tle_line1": "1 34546U 93036UG  25339.97728127  .00004450  00000+0  12688-2 0  9997",
        "tle_line2": "2 34546  74.0318 261.7937 0021767 336.2828 148.3578 14.45362007879289"
      },
      "geometry": {
        "type": "Point",
        "coordinates": [
          76.5698614538623,
          13.850565639571617
        ]
      }
    },
    {
      "type": "Feature",
      "properties": {
        "norad_id": 34547,
        "name": "COSMOS 2251 DEB",
        "group": "cosmos-2251-debris",
        "lat": 54.3524368673419,
        "lon": -90.87375663115951,
        "alt_km": 644.5849065932416,
        "timestamp": "2025-12-06T14:35:37.520620+00:00",
        "meta_object_name": "COSMOS 2251 DEB",
        "meta_object_id": "1993-036UH",
        "meta_epoch": "2025-12-06T02:37:20.019072",
        "meta_mean_motion": 14.72076403,
        "meta_eccentricity": 0.00183047,
        "meta_inclination": 74.031,
        "meta_ra_of_asc_node": 113.629,
        "meta_arg_of_pericenter": 193.8939,
        "meta_mean_anomaly": 166.1732,
        "meta_ephemeris_type": 0,
        "meta_classification_type": "U",
        "meta_norad_cat_id": 34547,
        "meta_element_set_no": 999,
        "meta_rev_at_epoch": 88424,
        "meta_bstar": 0.0034619805,
        "meta_mean_motion_dot": 0.00021868,
        "meta_mean_motion_ddot": 0,
        "tle_line1": "1 34547U 93036UH  25340.10925948  .00021868  00000+0  34620-2 0  9997",
        "tle_line2": "2 34547  74.0310 113.6290 0018304 193.8939 166.1732 14.72076403884246"
      },
      "geometry": {
        "type": "Point",
        "coordinates": [
          -90.87375663115951,
          54.3524368673419
        ]
      }
    },
    {
      "type": "Feature",
      "properties": {
        "norad_id": 34553,
        "name": "COSMOS 2251 DEB",
        "group": "cosmos-2251-debris",
        "lat": -19.524558502665183,
        "lon": -162.27438109558744,
        "alt_km": 698.3431923894677,
        "timestamp": "2025-12-06T14:35:37.520630+00:00",
        "meta_object_name": "COSMOS 2251 DEB",
        "meta_object_id": "1993-036UP",
        "meta_epoch": "2025-12-05T17:48:12.359808",
        "meta_mean_motion": 14.57623042,
        "meta_eccentricity": 0.00195954,
        "meta_inclination": 74.0248,
        "meta_ra_of_asc_node": 205.203,
        "meta_arg_of_pericenter": 283.0626,
        "meta_mean_anomaly": 192.6852,
        "meta_ephemeris_type": 0,
        "meta_classification_type": "U",
        "meta_norad_cat_id": 34553,
        "meta_element_set_no": 999,
        "meta_rev_at_epoch": 87994,
        "meta_bstar": 0.002052328,
        "meta_mean_motion_dot": 9.361e-05,
        "meta_mean_motion_ddot": 0,
        "tle_line1": "1 34553U 93036UP  25339.74180972  .00009361  00000+0  20523-2 0  9993",
        "tle_line2": "2 34553  74.0248 205.2030 0019595 283.0626 192.6852 14.57623042879949"
      },
      "geometry": {
        "type": "Point",
        "coordinates": [
          -162.27438109558744,
          -19.524558502665183
        ]
      }
    }
  ]
}